{
  "type": "FeatureCollection",
  "features": [
    {
      "type": "Feature",
      "properties": {
        "norad_id": 41434,
        "name": "BEIDOU-2 IGSO-6 (C13)",
        "group": "beidou",
        "lat": -33.929874215044265,
        "lon": -117.09166342858757,
        "alt_km": 35549.42985240067,
        "timestamp": "2025-12-02T06:27:53.278860+00:00",
        "meta_object_name": "BEIDOU-2 IGSO-6 (C13)",
        "meta_object_id": "2016-021A",
        "meta_epoch": "2025-11-29T16:01:16.721760",
        "meta_mean_motion": 1.00257137,
        "meta_eccentricity": 0.00590915,
        "meta_inclination": 59.9454,
        "meta_ra_of_asc_node": 40.0323,
        "meta_arg_of_pericenter": 231.0312,
        "meta_mean_anomaly": 130.2075,
        "meta_ephemeris_type": 0,
        "meta_classification_type": "U",
        "meta_norad_cat_id": 41434,
        "meta_element_set_no": 999,
        "meta_rev_at_epoch": 3548,
        "meta_bstar": 0,
        "meta_mean_motion_dot": -1.5e-06,
        "meta_mean_motion_ddot": 0,
        "tle_line1": "1 41434U 16021A   25333.66755465 -.00000150  00000+0  00000+0 0  9991",
        "tle_line2": "2 41434  59.9454  40.0323 0059091 231.0312 130.2075  1.00257137 35486"
      },
      "geometry": {
        "type": "Point",
        "coordinates": [
          -117.09166342858757,
          -33.929874215044265
        ]
      }
    },
    {
      "type": "Feature",
      "properties": {
        "norad_id": 41586,
        "name": "BEIDOU-2 G7 (C03)",
        "group": "beidou",
        "lat": -0.9074265970028632,
        "lon": -81.22652757800545,
        "alt_km": 35803.24442800249,
        "timestamp": "2025-12-02T06:27:53.278872+00:00",
        "meta_object_name": "BEIDOU-2 G7 (C03)",
        "meta_object_id": "2016-037A",
        "meta_epoch": "2025-12-01T19:28:34.240224",
        "meta_mean_motion": 1.00272547,
        "meta_eccentricity": 0.0004485,
        "meta_inclination": 1.728,
        "meta_ra_of_asc_node": 67.6674,
        "meta_arg_of_pericenter": 5.9435,
        "meta_mean_anomaly": 39.9401,
        "meta_ephemeris_type": 0,
        "meta_classification_type": "U",
        "meta_norad_cat_id": 41586,
        "meta_element_set_no": 999,
        "meta_rev_at_epoch": 491,
        "meta_bstar": 0,
        "meta_mean_motion_dot": -3.32e-06,
        "meta_mean_motion_ddot": 0,
        "tle_line1": "1 41586U 16037A   25335.81150741 -.00000332  00000+0  00000+0 0  9993",
        "tle_line2": "2 41586   1.7280  67.6674 0004485   5.9435  39.9401  1.00272547  4915"
      },
      "geometry": {
        "type": "Point",
        "coordinates": [
          -81.22652757800545,
          -0.9074265970028632
        ]
      }
    },
    {
      "type": "Feature",
      "properties": {
        "norad_id": 43001,
        "name": "BEIDOU-3 M1 (C19)",
        "group": "beidou",
        "lat": 37.383091122011585,
        "lon": -140.75267104235607,
        "alt_km": 21547.432419035853,
        "timestamp": "2025-12-02T06:27:53.278884+00:00",
        "meta_object_name": "BEIDOU-3 M1 (C19)",
        "meta_object_id": "2017-069A",
        "meta_epoch": "2025-11-30T11:01:49.166976",
        "meta_mean_motion": 1.86230859,
        "meta_eccentricity": 0.00086901,
        "meta_inclination": 56.5161,
        "meta_ra_of_asc_node": 69.6405,
        "meta_arg_of_pericenter": 303.5198,
        "meta_mean_anomaly": 56.4027,
        "meta_ephemeris_type": 0,
        "meta_classification_type": "U",
        "meta_norad_cat_id": 43001,
        "meta_element_set_no": 999,
        "meta_rev_at_epoch": 5490,
        "meta_bstar": 0,
        "meta_mean_motion_dot": -3.3e-07,
        "meta_mean_motion_ddot": 0,
        "tle_line1": "1 43001U 17069A   25334.45959684 -.00000033  00000+0  00000+0 0  9993",
        "tle_line2": "2 43001  56.5161  69.6405 0008690 303.5198  56.4027  1.86230859 54900"
      },
      "geometry": {
        "type": "Point",
        "coordinates": [
          -140.75267104235607,
          37.383091122011585
        ]
      }
    },
    {
      "type": "Feature",
      "properties": {
        "norad_id": 43002,
        "name": "BEIDOU-3 M2 (C20)",
        "group": "beidou",
        "lat": 4.433741977699081,
        "lon": -113.3230472711312,
        "alt_km": 21543.720533081887,
        "timestamp": "2025-12-02T06:27:53.278894+00:00",
        "meta_object_name": "BEIDOU-3 M2 (C20)",
        "meta_object_id": "2017-069B",
        "meta_epoch": "2025-11-30T22:26:15.226080",
        "meta_mean_motion": 1.86230641,
        "meta_eccentricity": 0.000614,
        "meta_inclination": 56.5161,
        "meta_ra_of_asc_node": 69.6603,
        "meta_arg_of_pericenter": 332.5707,
        "meta_mean_anomaly": 27.401,
        "meta_ephemeris_type": 0,
        "meta_classification_type": "U",
        "meta_norad_cat_id": 43002,
        "meta_element_set_no": 999,
        "meta_rev_at_epoch": 5490,
        "meta_bstar": 0,
        "meta_mean_motion_dot": -3.7e-07,
        "meta_mean_motion_ddot": 0,
        "tle_line1": "1 43002U 17069B   25334.93489845 -.00000037  00000+0  00000+0 0  9998",
        "tle_line2": "2 43002  56.5161  69.6603 0006140 332.5707  27.4010  1.86230641 54906"
      },
      "geometry": {
        "type": "Point",
        "coordinates": [
          -113.3230472711312,
          4.433741977699081
        ]
      }
    },
    {
      "type": "Feature",
      "properties": {
        "norad_id": 43107,
        "name": "BEIDOU-3 M7 (C27)",
        "group": "beidou",
        "lat": -10.659761152504945,
        "lon": -58.55539729358006,
        "alt_km": 21528.828175451465,
        "timestamp": "2025-12-02T06:27:53.278906+00:00",
        "meta_object_name": "BEIDOU-3 M7 (C27)",
        "meta_object_id": "2018-003A",
        "meta_epoch": "2025-12-01T05:09:41.465664",
        "meta_mean_motion": 1.86232281,
        "meta_eccentricity": 0.00025722,
        "meta_inclination": 54.507,
        "meta_ra_of_asc_node": 309.2159,
        "meta_arg_of_pericenter": 71.057,
        "meta_mean_anomaly": 288.9652,
        "meta_ephemeris_type": 0,
        "meta_classification_type": "U",
        "meta_norad_cat_id": 43107,
        "meta_element_set_no": 999,
        "meta_rev_at_epoch": 5366,
        "meta_bstar": 0,
        "meta_mean_motion_dot": -5.7e-07,
        "meta_mean_motion_ddot": 0,
        "tle_line1": "1 43107U 18003A   25335.21506326 -.00000057  00000+0  00000+0 0  9991",
        "tle_line2": "2 43107  54.5070 309.2159 0002572  71.0570 288.9652  1.86232281 53666"
      },
      "geometry": {
        "type": "Point",
        "coordinates": [
          -58.55539729358006,
          -10.659761152504945
        ]
      }
    },
    {
      "type": "Feature",
      "properties": {
        "norad_id": 43108,
        "name": "BEIDOU-3 M8 (C28)",
        "group": "beidou",
        "lat": 19.22618852108582,
        "lon": -36.44559194899943,
        "alt_km": 21530.45509912416,
        "timestamp": "2025-12-02T06:27:53.278919+00:00",
        "meta_object_name": "BEIDOU-3 M8 (C28)",
        "meta_object_id": "2018-003B",
        "meta_epoch": "2025-12-01T03:50:13.118784",
        "meta_mean_motion": 1.86230755,
        "meta_eccentricity": 0.0004823,
        "meta_inclination": 54.4999,
        "meta_ra_of_asc_node": 309.2007,
        "meta_arg_of_pericenter": 273.5581,
        "meta_mean_anomaly": 86.3811,
        "meta_ephemeris_type": 0,
        "meta_classification_type": "U",
        "meta_norad_cat_id": 43108,
        "meta_element_set_no": 999,
        "meta_rev_at_epoch": 5367,
        "meta_bstar": 0,
        "meta_mean_motion_dot": -5.7e-07,
        "meta_mean_motion_ddot": 0,
        "tle_line1": "1 43108U 18003B   25335.15987406 -.00000057  00000+0  00000+0 0  9997",
        "tle_line2": "2 43108  54.4999 309.2007 0004823 273.5581  86.3811  1.86230755 53672"
      },
      "geometry": {
        "type": "Point",
        "coordinates": [
          -36.44559194899943,
          19.22618852108582
        ]
      }
    },
    {
      "type": "Feature",
      "properties": {
        "norad_id": 43207,
        "name": "BEIDOU-3 M4 (C22)",
        "group": "beidou",
        "lat": 56.42693693147538,
        "lon": 155.46044597963336,
        "alt_km": 21518.133724690353,
        "timestamp": "2025-12-02T06:27:53.278933+00:00",
        "meta_object_name": "BEIDOU-3 M4 (C22)",
        "meta_object_id": "2018-018A",
        "meta_epoch": "2025-12-01T14:26:30.979680",
        "meta_mean_motion": 1.86230736,
        "meta_eccentricity": 0.00040579,
        "meta_inclination": 56.4763,
        "meta_ra_of_asc_node": 69.6735,
        "meta_arg_of_pericenter": 15.5905,
        "meta_mean_anomaly": 344.4245,
        "meta_ephemeris_type": 0,
        "meta_classification_type": "U",
        "meta_norad_cat_id": 43207,
        "meta_element_set_no": 999,
        "meta_rev_at_epoch": 5306,
        "meta_bstar": 0,
        "meta_mean_motion_dot": -4.1e-07,
        "meta_mean_motion_ddot": 0,
        "tle_line1": "1 43207U 18018A   25335.60174745 -.00000041  00000+0  00000+0 0  9990",
        "tle_line2": "2 43207  56.4763  69.6735 0004057  15.5905 344.4245  1.86230736 53062"
      },
      "geometry": {
        "type": "Point",
        "coordinates": [
          155.46044597963336,
          56.42693693147538
        ]
      }
    }
  ]
}